CCSDS_OMM_VERS = 2.0
CREATION_DATE  = 
ORIGINATOR     = 

OBJECT_NAME    = ERS-1
OBJECT_ID      = 1991-050A
CENTER_NAME    = EARTH
REF_FRAME      = TEME
TIME_SYSTEM    = UTC
MEAN_ELEMENT_THEORY = SGP/SGP4

EPOCH          = 2026-03-26T07:26:58.617024
MEAN_MOTION    = 14.39461494
ECCENTRICITY   = .0032561
INCLINATION    = 98.7869
RA_OF_ASC_NODE = 103.9621
ARG_OF_PERICENTER = 151.3013
MEAN_ANOMALY   = 208.9974

EPHEMERIS_TYPE = 0
CLASSIFICATION_TYPE = U
NORAD_CAT_ID   = 21574
ELEMENT_SET_NO = 999
REV_AT_EPOCH   = 81812
BSTAR          = .11398696E-3
MEAN_MOTION_DOT = .311E-5
MEAN_MOTION_DDOT = 0

CCSDS_OMM_VERS = 2.0
CREATION_DATE  = 
ORIGINATOR     = 

OBJECT_NAME    = ARIANE 40 R/B
OBJECT_ID      = 1991-050F
CENTER_NAME    = EARTH
REF_FRAME      = TEME
TIME_SYSTEM    = UTC
MEAN_ELEMENT_THEORY = SGP/SGP4

EPOCH          = 2026-03-26T02:43:50.145312
MEAN_MOTION    = 14.42905128
ECCENTRICITY   = .00036939
INCLINATION    = 98.1979
RA_OF_ASC_NODE = 136.7312
ARG_OF_PERICENTER = 44.4428
MEAN_ANOMALY   = 315.7059

EPHEMERIS_TYPE = 0
CLASSIFICATION_TYPE = U
NORAD_CAT_ID   = 21610
ELEMENT_SET_NO = 999
REV_AT_EPOCH   = 82136
BSTAR          = .10031838E-3
MEAN_MOTION_DOT = .294E-5
MEAN_MOTION_DDOT = 0

CCSDS_OMM_VERS = 2.0
CREATION_DATE  = 
ORIGINATOR     = 

OBJECT_NAME    = INTERCOSMOS 25
OBJECT_ID      = 1991-086A
CENTER_NAME    = EARTH
REF_FRAME      = TEME
TIME_SYSTEM    = UTC
MEAN_ELEMENT_THEORY = SGP/SGP4

EPOCH          = 2026-03-26T02:02:02.620320
MEAN_MOTION    = 12.12053672
ECCENTRICITY   = .14866366
INCLINATION    = 82.6020
RA_OF_ASC_NODE = 300.0971
ARG_OF_PERICENTER = 81.6081
MEAN_ANOMALY   = 295.0190

EPHEMERIS_TYPE = 0
CLASSIFICATION_TYPE = U
NORAD_CAT_ID   = 21819
ELEMENT_SET_NO = 999
REV_AT_EPOCH   = 49867
BSTAR          = .25131131E-3
MEAN_MOTION_DOT = .1319E-4
MEAN_MOTION_DDOT = 0

CCSDS_OMM_VERS = 2.0
CREATION_DATE  = 
ORIGINATOR     = 

OBJECT_NAME    = SL-8 R/B
OBJECT_ID      = 1992-008B
CENTER_NAME    = EARTH
REF_FRAME      = TEME
TIME_SYSTEM    = UTC
MEAN_ELEMENT_THEORY = SGP/SGP4

EPOCH          = 2026-03-26T00:31:18.799968
MEAN_MOTION    = 13.75969559
ECCENTRICITY   = .00359817
INCLINATION    = 82.9228
RA_OF_ASC_NODE = 255.6254
ARG_OF_PERICENTER = 89.2520
MEAN_ANOMALY   = 27.9384

EPHEMERIS_TYPE = 0
CLASSIFICATION_TYPE = U
NORAD_CAT_ID   = 21876
ELEMENT_SET_NO = 999
REV_AT_EPOCH   = 71166
BSTAR          = .10571527E-4
MEAN_MOTION_DOT = .26E-6
MEAN_MOTION_DDOT = 0

CCSDS_OMM_VERS = 2.0
CREATION_DATE  = 
ORIGINATOR     = 

OBJECT_NAME    = SL-8 R/B
OBJECT_ID      = 1992-020B
CENTER_NAME    = EARTH
REF_FRAME      = TEME
TIME_SYSTEM    = UTC
MEAN_ELEMENT_THEORY = SGP/SGP4

EPOCH          = 2026-03-26T06:40:51.680352
MEAN_MOTION    = 13.75550482
ECCENTRICITY   = .00276798
INCLINATION    = 82.9309
RA_OF_ASC_NODE = 141.4453
ARG_OF_PERICENTER = 250.2704
MEAN_ANOMALY   = 178.8498

EPHEMERIS_TYPE = 0
CLASSIFICATION_TYPE = U
NORAD_CAT_ID   = 21938
ELEMENT_SET_NO = 999
REV_AT_EPOCH   = 70341
BSTAR          = .14474671E-4
MEAN_MOTION_DOT = .29E-6
MEAN_MOTION_DDOT = 0

CCSDS_OMM_VERS = 2.0
CREATION_DATE  = 
ORIGINATOR     = 

OBJECT_NAME    = USA 81
OBJECT_ID      = 1992-023A
CENTER_NAME    = EARTH
REF_FRAME      = TEME
TIME_SYSTEM    = UTC
MEAN_ELEMENT_THEORY = SGP/SGP4

EPOCH          = 2026-03-26T01:48:29.331936
MEAN_MOTION    = 14.32373100
ECCENTRICITY   = .00019044
INCLINATION    = 85.0052
RA_OF_ASC_NODE = 121.9855
ARG_OF_PERICENTER = 68.3498
MEAN_ANOMALY   = 291.7897

EPHEMERIS_TYPE = 0
CLASSIFICATION_TYPE = U
NORAD_CAT_ID   = 21949
ELEMENT_SET_NO = 999
REV_AT_EPOCH   = 9713
BSTAR          = .53502542E-4
MEAN_MOTION_DOT = .164E-5
MEAN_MOTION_DDOT = 0

CCSDS_OMM_VERS = 2.0
CREATION_DATE  = 
ORIGINATOR     = 

OBJECT_NAME    = COSMOS 2219
OBJECT_ID      = 1992-076A
CENTER_NAME    = EARTH
REF_FRAME      = TEME
TIME_SYSTEM    = UTC
MEAN_ELEMENT_THEORY = SGP/SGP4

EPOCH          = 2026-03-26T01:46:07.152960
MEAN_MOTION    = 14.14091743
ECCENTRICITY   = .00180516
INCLINATION    = 71.0629
RA_OF_ASC_NODE = 343.8219
ARG_OF_PERICENTER = 183.2782
MEAN_ANOMALY   = 176.8226

EPHEMERIS_TYPE = 0
CLASSIFICATION_TYPE = U
NORAD_CAT_ID   = 22219
ELEMENT_SET_NO = 999
REV_AT_EPOCH   = 72069
BSTAR          = -.93704242E-4
MEAN_MOTION_DOT = -.226E-5
MEAN_MOTION_DDOT = 0

CCSDS_OMM_VERS = 2.0
CREATION_DATE  = 
ORIGINATOR     = 

OBJECT_NAME    = SL-16 R/B
OBJECT_ID      = 1992-076B
CENTER_NAME    = EARTH
REF_FRAME      = TEME
TIME_SYSTEM    = UTC
MEAN_ELEMENT_THEORY = SGP/SGP4

EPOCH          = 2026-03-26T06:54:35.619264
MEAN_MOTION    = 14.16863927
ECCENTRICITY   = .00106516
INCLINATION    = 71.0002
RA_OF_ASC_NODE = 153.4128
ARG_OF_PERICENTER = 65.2872
MEAN_ANOMALY   = 357.9686

EPHEMERIS_TYPE = 0
CLASSIFICATION_TYPE = U
NORAD_CAT_ID   = 22220
ELEMENT_SET_NO = 999
REV_AT_EPOCH   = 72418
BSTAR          = .35558051E-4
MEAN_MOTION_DOT = .23E-6
MEAN_MOTION_DDOT = 0

CCSDS_OMM_VERS = 2.0
CREATION_DATE  = 
ORIGINATOR     = 

OBJECT_NAME    = COSMOS 2221
OBJECT_ID      = 1992-080A
CENTER_NAME    = EARTH
REF_FRAME      = TEME
TIME_SYSTEM    = UTC
MEAN_ELEMENT_THEORY = SGP/SGP4

EPOCH          = 2026-03-25T22:55:29.546976
MEAN_MOTION    = 14.96264596
ECCENTRICITY   = .00153574
INCLINATION    = 82.5007
RA_OF_ASC_NODE = 263.4954
ARG_OF_PERICENTER = 134.2693
MEAN_ANOMALY   = 225.9792

EPHEMERIS_TYPE = 0
CLASSIFICATION_TYPE = U
NORAD_CAT_ID   = 22236
ELEMENT_SET_NO = 999
REV_AT_EPOCH   = 78322
BSTAR          = .18087358E-3
MEAN_MOTION_DOT = .2072E-4
MEAN_MOTION_DDOT = 0

CCSDS_OMM_VERS = 2.0
CREATION_DATE  = 
ORIGINATOR     = 

OBJECT_NAME    = SL-16 R/B
OBJECT_ID      = 1992-093B
CENTER_NAME    = EARTH
REF_FRAME      = TEME
TIME_SYSTEM    = UTC
MEAN_ELEMENT_THEORY = SGP/SGP4

EPOCH          = 2026-03-26T03:14:21.418368
MEAN_MOTION    = 14.15453002
ECCENTRICITY   = .00064135
INCLINATION    = 71.0233
RA_OF_ASC_NODE = 329.7455
ARG_OF_PERICENTER = 277.5766
MEAN_ANOMALY   = 82.4628

EPHEMERIS_TYPE = 0
CLASSIFICATION_TYPE = U
NORAD_CAT_ID   = 22285
ELEMENT_SET_NO = 999
REV_AT_EPOCH   = 71548
BSTAR          = .17572825E-3
MEAN_MOTION_DOT = .296E-5
MEAN_MOTION_DDOT = 0

CCSDS_OMM_VERS = 2.0
CREATION_DATE  = 
ORIGINATOR     = 

OBJECT_NAME    = COSMOS 2228
OBJECT_ID      = 1992-094A
CENTER_NAME    = EARTH
REF_FRAME      = TEME
TIME_SYSTEM    = UTC
MEAN_ELEMENT_THEORY = SGP/SGP4

EPOCH          = 2026-03-26T05:28:20.998848
MEAN_MOTION    = 14.97271551
ECCENTRICITY   = .00167158
INCLINATION    = 82.5181
RA_OF_ASC_NODE = 221.4748
ARG_OF_PERICENTER = 244.1151
MEAN_ANOMALY   = 115.8349

EPHEMERIS_TYPE = 0
CLASSIFICATION_TYPE = U
NORAD_CAT_ID   = 22286
ELEMENT_SET_NO = 999
REV_AT_EPOCH   = 77853
BSTAR          = .18612197E-3
MEAN_MOTION_DOT = .2187E-4
MEAN_MOTION_DDOT = 0

CCSDS_OMM_VERS = 2.0
CREATION_DATE  = 
ORIGINATOR     = 

OBJECT_NAME    = SL-16 R/B
OBJECT_ID      = 1993-016B
CENTER_NAME    = EARTH
REF_FRAME      = TEME
TIME_SYSTEM    = UTC
MEAN_ELEMENT_THEORY = SGP/SGP4

EPOCH          = 2026-03-26T07:38:26.981376
MEAN_MOTION    = 14.15305484
ECCENTRICITY   = .0012342
INCLINATION    = 71.0079
RA_OF_ASC_NODE = 180.2585
ARG_OF_PERICENTER = 292.6349
MEAN_ANOMALY   = 67.3468

EPHEMERIS_TYPE = 0
CLASSIFICATION_TYPE = U
NORAD_CAT_ID   = 22566
ELEMENT_SET_NO = 999
REV_AT_EPOCH   = 70452
BSTAR          = -.46487693E-4
MEAN_MOTION_DOT = -.138E-5
MEAN_MOTION_DDOT = 0

